0 COSMOS 1723
1 16456U 86002H   13282.17805345 -.00000038  00000-0 -13174-3 0  3533
2 16456 073.9902 193.2625 0052957 235.0914 277.3875 12.55731368272151
0 COSMOS 1723
1 16456U 86002H   13287.20021593  .00000015  00000-0  19195-3 0  3551
2 16456 073.9898 186.5011 0052871 227.5311 300.6916 12.55730800272786
0 COSMOS 1723
1 16456U 86002H   13289.41941096  .00000017  00000-0  20506-3 0  3566
2 16456 073.9893 183.5134 0052842 224.1902 252.8333 12.55730893273066
0 COSMOS 1723
1 16456U 86002H   13292.13618652 -.00000006  00000-0  62828-4 0  3572
2 16456 073.9887 179.8558 0052812 220.0935 294.3556 12.55731296273409
0 COSMOS 1723
1 16456U 86002H   13294.43669111 -.00000028  00000-0 -67138-4 0  3588
2 16456 073.9885 176.7584 0052767 216.6268 254.0734 12.55731553273699
